CCSDS_OMM_VERS,COMMENT,CREATION_DATE,ORIGINATOR,OBJECT_NAME,OBJECT_ID,CENTER_NAME,REF_FRAME,TIME_SYSTEM,MEAN_ELEMENT_THEORY,EPOCH,MEAN_MOTION,ECCENTRICITY,INCLINATION,RA_OF_ASC_NODE,ARG_OF_PERICENTER,MEAN_ANOMALY,EPHEMERIS_TYPE,CLASSIFICATION_TYPE,NORAD_CAT_ID,ELEMENT_SET_NO,REV_AT_EPOCH,BSTAR,MEAN_MOTION_DOT,MEAN_MOTION_DDOT,SEMIMAJOR_AXIS,PERIOD,APOAPSIS,PERIAPSIS,OBJECT_TYPE,RCS_SIZE,COUNTRY_CODE,LAUNCH_DATE,SITE,DECAY_DATE,FILE,GP_ID,TLE_LINE0,TLE_LINE1,TLE_LINE2,NORAD_KEY,JCAT,DeepCat,Satcat,Piece,Active,Type,Name,LDate,Parent,Owner,State,SDate,ExpandedStatus,DDate,ODate,Period,Perigee,PF,Apogee,AF,Inc,IF,OpOrbit,SATCAT_KEY
3.0,GENERATED VIA SPACE-TRACK.ORG API,2026-05-06T15:06:46,18 SPCS,EUTE 8A (SINOSAT 3),2007-021A,EARTH,TEME,UTC,SGP4,2026-05-06T10:44:01.440960,0.98335361,0.0013736,9.4759,48.5218,101.9196,88.7339,0,U,31577,999,4102,0.00000000000000,-0.00000052,0.0000000000000,42716.471,1464.377,36397.011,36279.66,PAYLOAD,LARGE,EUTE,2007-05-31,XSC,,5177771,322311907,0 EUTE 8A (SINOSAT 3),1 31577U 07021A   26126.44723890 -.00000052  00000-0  00000+0 0  9994,2 31577   9.4759  48.5218 0013736 101.9196  88.7339  0.98335361 41027,31577,S31577,-,31577,2007-021A,P,P,EUTELSAT 8 WEST D,2007 May 31,S31578,EUTSA,F,2007 May 31 1632,In Earth orbit,-,2026 May  4 ,    1464.387 ,   36280, ,   36397, ,  9.47 , ,GEO/ID,31577
3.0,GENERATED VIA SPACE-TRACK.ORG API,2026-05-06T14:56:52,18 SPCS,RADUGA 16,1985-070A,EARTH,TEME,UTC,SGP4,2026-05-06T06:04:55.555392,1.00280883,0.0002195,9.4881,317.0989,322.3938,223.959,0,U,15946,999,12180,0.00000000000000,0.00000084,0.0000000000000,42162.182,1435.967,35793.301,35774.792,PAYLOAD,LARGE,CIS,1985-08-08,TTMTR,,5177376,322302561,0 RADUGA 16,1 15946U 85070A   26126.25342078  .00000084  00000-0  00000+0 0  9994,2 15946   9.4881 317.0989 0002195 322.3938 223.9590  1.00280883121803,15946,S15946,-,15946,1985-070A,P,P,Raduga,1985 Aug  8,S15963,VVKOV,SU,1985 Aug  9 0337?,In Earth orbit,-,2026 May  5 ,    1435.972 ,   35774, ,   35793, ,  9.49 , ,GEO/I,15946
3.0,GENERATED VIA SPACE-TRACK.ORG API,2026-05-06T14:56:52,18 SPCS,ASTRA 2B,2000-054A,EARTH,TEME,UTC,SGP4,2026-05-06T11:24:34.668000,0.98914805,0.0009742,9.4905,56.5483,172.1171,58.3508,0,U,26494,999,4622,0.00000000000000,0.00000046,0.0000000000000,42549.485,1455.798,36212.802,36129.898,PAYLOAD,LARGE,SES,2000-09-14,FRGUI,,5177593,322307841,0 ASTRA 2B,1 26494U 00054A   26126.47540125  .00000046  00000-0  00000+0 0  9998,2 26494   9.4905  56.5483 0009742 172.1171  58.3508  0.98914805 46224,26494,S26494,-,26494,2000-054A,P,P      G,Astra 2B,2000 Sep 14,S26496,SESSA,L,2000 Sep 14 2322,In Earth orbit,-,2026 May  5 ,    1455.797 ,   36130, ,   36212, ,  9.49 , ,GEO/ID,26494
3.0,GENERATED VIA SPACE-TRACK.ORG API,2026-05-06T14:56:52,18 SPCS,XM-2,2001-012A,EARTH,TEME,UTC,SGP4,2026-05-06T08:11:38.854752,0.99080613,0.0003397,9.4927,56.942,86.0593,120.6193,0,U,26724,999,4182,0.00000000000000,-0.00000059,0.0000000000000,42502.002,1453.362,36138.305,36109.429,PAYLOAD,LARGE,US,2001-03-18,SEAL,,5177597,322308395,0 XM-2,1 26724U 01012A   26126.34142193 -.00000059  00000-0  00000+0 0  9993,2 26724   9.4927  56.9420 0003397  86.0593 120.6193  0.99080613 41826,26724,S26724,-,26724,2001-012A,P,P,XM-2,2001 Mar 18,S26725,XMRS,US,2001 Mar 18 2338,In Earth orbit,-,2026 May  5 ,    1453.358 ,   36109, ,   36137, ,  9.49 , ,GEO/ID,26724
3.0,GENERATED VIA SPACE-TRACK.ORG API,2026-05-06T14:56:52,18 SPCS,YAMAL 201,2003-053B,EARTH,TEME,UTC,SGP4,2026-05-06T11:14:42.311328,1.00311971,3.8e-05,9.5198,55.9649,81.9085,328.3789,0,U,28094,999,8446,0.00000000000000,-0.00000077,0.0000000000000,42153.47,1435.522,35776.937,35773.733,PAYLOAD,LARGE,CIS,2003-11-24,TTMTR,,5177627,322308829,0 YAMAL 201,1 28094U 03053B   26126.46854527 -.00000077  00000-0  00000+0 0  9996,2 28094   9.5198  55.9649 0000380  81.9085 328.3789  1.00311971 84462,28094,S28094,-,28094,2003-053B,P,P,Yamal-201,2003 Nov 24,S28089,GAZS,RU,2003 Nov 24 1306,In Earth orbit,-,2026 May  4 ,    1435.523 ,   35774, ,   35776, ,  9.52 , ,GEO/I,28094
3.0,GENERATED VIA SPACE-TRACK.ORG API,2026-05-06T14:56:52,18 SPCS,STTW-T2,1984-035A,EARTH,TEME,UTC,SGP4,2026-05-06T11:59:42.917856,1.00240708,0.0006146,9.5281,318.1831,190.458,26.7421,0,U,14899,999,4695,0.00000000000000,-0.00000344,0.0000000000000,42173.446,1436.542,35821.231,35769.391,PAYLOAD,LARGE,PRC,1984-04-08,XSC,,5177368,322302466,0 STTW-T2,1 14899U 84035A   26126.49980229 -.00000344  00000-0  00000+0 0  9992,2 14899   9.5281 318.1831 0006146 190.4580  26.7421  1.00240708 46955,14899,S14899,-,14899,1984-035A,P,P,Shiyan Tongbu Tongxin Wx.,1984 Apr  8,S14900,CNSA,CN,1984 Apr  8 1141?,In Earth orbit,-,2026 May  4 ,    1436.532 ,   35769, ,   35820, ,  9.53 , ,GEO/ID,14899
3.0,GENERATED VIA SPACE-TRACK.ORG API,2026-05-06T14:56:52,18 SPCS,GARUDA 1,2000-011A,EARTH,TEME,UTC,SGP4,2026-05-06T13:21:51.618816,0.99922062,0.0002569,9.5541,64.3831,293.9357,248.1108,0,U,26089,999,4124,0.00000000000000,0.00000004,0.0000000000000,42263.058,1441.123,35895.78,35874.065,PAYLOAD,LARGE,INDO,2000-02-12,TTMTR,,5177582,322307708,0 GARUDA 1,1 26089U 00011A   26126.55684744  .00000004  00000-0  00000+0 0  9990,2 26089   9.5541  64.3831 0002569 293.9357 248.1108  0.99922062 41240,26089,S26089,-,26089,2000-011A,P,P,Garuda 1,2000 Feb 12,S26090,INMRV,ID,2000 Feb 12 1550,In Earth orbit,-,2026 May  5 ,    1441.130 ,   35873, ,   35896, ,  9.55 , ,GEO/ID,26089
3.0,GENERATED VIA SPACE-TRACK.ORG API,2026-05-06T14:46:56,18 SPCS,ANIK B1 (TELESAT-4),1978-116A,EARTH,TEME,UTC,SGP4,2026-05-06T09:33:53.360064,0.99819883,0.0017758,9.5772,316.3481,332.3835,46.868,0,U,11153,999,13561,0.00000000000000,-0.00000269,0.0000000000000,42291.894,1442.598,35988.861,35838.657,PAYLOAD,LARGE,CA,1978-12-16,AFETR,,5177209,322298477,0 ANIK B1 (TELESAT-4),1 11153U 78116A   26126.39853426 -.00000269  00000-0  00000+0 0  9998,2 11153   9.5772 316.3481 0017758 332.3835  46.8680  0.99819883135617,11153,S11153,-,11153,1978-116A,P,P,Anik B,1978 Dec 16,S13915,TCANL,CA,1978 Dec 16 0045,In Earth orbit,-,2026 May  4 ,    1442.593 ,   35838, ,   35988, ,  9.58 , ,GEO/ID,11153
3.0,GENERATED VIA SPACE-TRACK.ORG API,2026-05-06T10:08:52,18 SPCS,JCSAT 6,1999-006A,EARTH,TEME,UTC,SGP4,2026-05-06T05:54:07.310016,0.98809856,0.00231795,9.5877,56.3584,36.3689,136.877,0,U,25630,999,1579,0.00000000000000,-0.00000040,0.0000000000000,42579.609,1457.345,36300.171,36102.776,PAYLOAD,LARGE,JPN,1999-02-16,AFETR,,5176958,322265870,0 JCSAT 6,1 25630U 99006A   26126.24591794 -.00000040  00000-0  00000-0 0  9993,2 25630   9.5877  56.3584 0023179  36.3689 136.8770  0.98809856 15799,25630,S25630,-,25630,1999-006A,P,P,JCSAT 4A,1999 Feb 16,S25631,SKPJ,J,1999 Feb 16 0215,In Earth orbit,-,2026 May  5 ,    1457.339 ,   36102, ,   36299, ,  9.59 , ,GEO/ID,25630
3.0,GENERATED VIA SPACE-TRACK.ORG API,2026-05-06T14:46:56,18 SPCS,COMSTAR 3,1978-068A,EARTH,TEME,UTC,SGP4,2026-05-06T11:09:43.978176,0.9919836,0.0022874,9.5908,315.4598,322.3298,57.8119,0,U,10975,999,4578,0.00000000000000,-0.00000213,0.0000000000000,42468.362,1451.637,36187.369,35993.085,PAYLOAD,LARGE,US,1978-06-29,AFETR,,5177205,322298426,0 COMSTAR 3,1 10975U 78068A   26126.46509234 -.00000213  00000-0  00000+0 0  9997,2 10975   9.5908 315.4598 0022874 322.3298  57.8119  0.99198360 45782,10975,S10975,-,10975,1978-068A,P,P,Comstar 203,1978 Jun 29,S10976,IGC,US,1978 Jun 29 2252,In Earth orbit,-,2026 May  4 ,    1451.628 ,   35992, ,   36187, ,  9.59 , ,GEO/ID,10975
3.0,GENERATED VIA SPACE-TRACK.ORG API,2026-05-06T14:46:56,18 SPCS,ELEKTRO-L,2011-001A,EARTH,TEME,UTC,SGP4,2026-05-06T07:33:28.395072,1.00158377,0.0004392,9.5925,54.9239,21.9707,166.5795,0,U,37344,999,5606,0.00000000000000,-0.00000140,0.0000000000000,42196.554,1437.723,35836.952,35799.887,PAYLOAD,LARGE,CIS,2011-01-20,TTMTR,,5177111,322296199,0 ELEKTRO-L,1 37344U 11001A   26126.31491198 -.00000140  00000-0  00000+0 0  9992,2 37344   9.5925  54.9239 0004392  21.9707 166.5795  1.00158377 56067,37344,S37344,-,37344,2011-001A,P,P,Elektro-L No. 1,2011 Jan 20,S37345,RGMS/NPOLO,RU,2011 Jan 20 2128,In Earth orbit,-,2026 May  5 ,    1437.720 ,   35799, ,   35836, ,  9.59 , ,GEO/ID,37344
3.0,GENERATED VIA SPACE-TRACK.ORG API,2026-05-06T14:56:52,18 SPCS,INMARSAT 3-F5,1998-006B,EARTH,TEME,UTC,SGP4,2026-05-06T05:53:17.866752,1.00268863,0.0005169,9.601,53.6685,355.1426,209.5829,0,U,25153,999,10347,0.00000000000000,-0.00000283,0.0000000000000,42165.551,1436.139,35809.211,35765.621,PAYLOAD,LARGE,IM,1998-02-04,FRGUI,,5177551,322306816,0 INMARSAT 3-F5,1 25153U 98006B   26126.24534568 -.00000283  00000-0  00000+0 0  9996,2 25153   9.6010  53.6685 0005169 355.1426 209.5829  1.00268863103478,25153,S25153,-,25153,1998-006B,P,P,INMARSAT III F-5,1998 Feb  4,S25154,INMRV,UK,1998 Feb  4 2355,In Earth orbit,-,2026 May  5 ,    1436.132 ,   35765, ,   35809, ,  9.60 , ,GEO/I,25153
3.0,GENERATED VIA SPACE-TRACK.ORG API,2026-05-06T14:56:52,18 SPCS,RADUGA 13,1983-088A,EARTH,TEME,UTC,SGP4,2026-05-06T11:26:53.994048,0.98173077,0.0019001,9.6087,312.941,64.7719,113.3224,0,U,14307,999,11853,0.00000000000000,-0.00000039,0.0000000000000,42763.532,1466.797,36466.652,36304.142,PAYLOAD,LARGE,CIS,1983-08-25,TTMTR,,5177366,322301949,0 RADUGA 13,1 14307U 83088A   26126.47701382 -.00000039  00000-0  00000+0 0  9993,2 14307   9.6087 312.9410 0019001  64.7719 113.3224  0.98173077118538,14307,S14307,-,14307,1983-088A,P,P,Raduga,1983 Aug 25,S14333,VVKOV,SU,1983 Aug 26 0239?,In Earth orbit,-,2026 May  5 ,    1466.789 ,   36304, ,   36466, ,  9.61 , ,GEO/ID,14307
